TRANSPORTER-11 OBJECT A 
1 60468U 24149A   26068.74646182  .00010774  00000+0  36054-3 0  9993
2 60468  97.3780 149.0949 0003110 191.0010 169.1164 15.31141332 86830
STARLINK-32343          
1 61712U 24196F   26068.35264495  .00000197  00000+0  18799-4 0  9993
2 61712  53.1604 103.0009 0001320  90.7402 269.3750 15.30188975 77103
